SL-4 R/B                
1 39679U 14021B   26025.62691889  .00016248  00000+0  37277-3 0  9995
2 39679  51.6064 187.1307 0099094 305.8838  53.2975 15.37828435649647
ALOS-2                  
1 39766U 14029A   26025.43386556  .00001005  00000+0  14140-3 0  9990
2 39766  97.9192 124.6520 0001486 104.8423 255.2954 14.79470123630471
YAOGAN-29               
1 41038U 15069A   26025.61155756  .00000518  00000+0  70471-4 0  9994
2 41038  98.0188  53.9175 0002683 108.0725 252.0781 14.82940315549497
ASTRO-H (HITOMI)        
1 41337U 16012A   26025.00157952  .00004670  00000+0  27701-3 0  9998
2 41337  30.9996 278.4090 0009922 254.3148 105.6395 15.09673973545626
HXMT (HUIYAN)           
1 42758U 17034A   26025.65540640  .00007552  00000+0  38296-3 0  9995
2 42758  43.0135 255.8223 0032812 320.4373  39.4081 15.16885919476004
CZ-2C R/B               
1 43521U 18054D   26025.64921675  .00254834  00000+0  88093-3 0  9994
2 43521  35.1306 240.5473 0012795 245.1147 114.8260 15.87722560422001
SAOCOM 1A               
1 43641U 18076A   26025.62124343  .00001254  00000+0  16401-3 0  9996
2 43641  97.8861 214.4064 0001530  85.4087 274.7300 14.82168404394985
H-2A R/B                
1 43682U 18084L   26025.53434352  .00030062  00000+0  76130-3 0  9998
2 43682  98.8767 233.7611 0026018 171.6996 188.4681 15.39352001399139
SAOCOM 1B               
1 46265U 20059A   26025.65247817  .00000245  00000+0  37355-4 0  9991
2 46265  97.8858 213.5359 0001335  86.1482 273.9883 14.82141244292373
CSS (TIANHE)            
1 48274U 21035A   26025.62929125  .00027552  00000+0  32006-3 0  9991
2 48274  41.4667 109.8872 0009914   0.3997 359.6849 15.61068734270881
COSMOS 2550             
1 48865U 21056A   26023.39368896 -.00000193  00000+0 -42471-7 0  9999
2 48865  67.1417 177.9415 0008427 270.0851  89.9337 15.33842763256517
CZ-2C R/B               
1 52794U 22058K   26025.13576448  .00040086  00000+0  65225-3 0  9997
2 52794  50.1884 181.8121 0042609  17.0110 343.2277 15.51183141203360
