CCSDS_OMM_VERS = 2.0
CREATION_DATE  = 
ORIGINATOR     = 

OBJECT_NAME    = SL-4 R/B
OBJECT_ID      = 2014-021B
CENTER_NAME    = EARTH
REF_FRAME      = TEME
TIME_SYSTEM    = UTC
MEAN_ELEMENT_THEORY = SGP/SGP4

EPOCH          = 2026-01-25T15:02:45.792096
MEAN_MOTION    = 15.37828435
ECCENTRICITY   = .00990946
INCLINATION    = 51.6064
RA_OF_ASC_NODE = 187.1307
ARG_OF_PERICENTER = 305.8838
MEAN_ANOMALY   = 53.2975

EPHEMERIS_TYPE = 0
CLASSIFICATION_TYPE = U
NORAD_CAT_ID   = 39679
ELEMENT_SET_NO = 999
REV_AT_EPOCH   = 64964
BSTAR          = .37276613E-3
MEAN_MOTION_DOT = .16248E-3
MEAN_MOTION_DDOT = 0

CCSDS_OMM_VERS = 2.0
CREATION_DATE  = 
ORIGINATOR     = 

OBJECT_NAME    = ALOS-2
OBJECT_ID      = 2014-029A
CENTER_NAME    = EARTH
REF_FRAME      = TEME
TIME_SYSTEM    = UTC
MEAN_ELEMENT_THEORY = SGP/SGP4

EPOCH          = 2026-01-25T10:24:45.984384
MEAN_MOTION    = 14.79470123
ECCENTRICITY   = .00014864
INCLINATION    = 97.9192
RA_OF_ASC_NODE = 124.6520
ARG_OF_PERICENTER = 104.8423
MEAN_ANOMALY   = 255.2954

EPHEMERIS_TYPE = 0
CLASSIFICATION_TYPE = U
NORAD_CAT_ID   = 39766
ELEMENT_SET_NO = 999
REV_AT_EPOCH   = 63047
BSTAR          = .14139792E-3
MEAN_MOTION_DOT = .1005E-4
MEAN_MOTION_DDOT = 0

CCSDS_OMM_VERS = 2.0
CREATION_DATE  = 
ORIGINATOR     = 

OBJECT_NAME    = YAOGAN-29
OBJECT_ID      = 2015-069A
CENTER_NAME    = EARTH
REF_FRAME      = TEME
TIME_SYSTEM    = UTC
MEAN_ELEMENT_THEORY = SGP/SGP4

EPOCH          = 2026-01-25T14:40:38.573184
MEAN_MOTION    = 14.82940315
ECCENTRICITY   = .00026838
INCLINATION    = 98.0188
RA_OF_ASC_NODE = 53.9175
ARG_OF_PERICENTER = 108.0725
MEAN_ANOMALY   = 252.0781

EPHEMERIS_TYPE = 0
CLASSIFICATION_TYPE = U
NORAD_CAT_ID   = 41038
ELEMENT_SET_NO = 999
REV_AT_EPOCH   = 54949
BSTAR          = .70470823E-4
MEAN_MOTION_DOT = .518E-5
MEAN_MOTION_DDOT = 0

CCSDS_OMM_VERS = 2.0
CREATION_DATE  = 
ORIGINATOR     = 

OBJECT_NAME    = ASTRO-H (HITOMI)
OBJECT_ID      = 2016-012A
CENTER_NAME    = EARTH
REF_FRAME      = TEME
TIME_SYSTEM    = UTC
MEAN_ELEMENT_THEORY = SGP/SGP4

EPOCH          = 2026-01-25T00:02:16.470528
MEAN_MOTION    = 15.09673973
ECCENTRICITY   = .00099223
INCLINATION    = 30.9996
RA_OF_ASC_NODE = 278.4090
ARG_OF_PERICENTER = 254.3148
MEAN_ANOMALY   = 105.6395

EPHEMERIS_TYPE = 0
CLASSIFICATION_TYPE = U
NORAD_CAT_ID   = 41337
ELEMENT_SET_NO = 999
REV_AT_EPOCH   = 54562
BSTAR          = .27700952E-3
MEAN_MOTION_DOT = .467E-4
MEAN_MOTION_DDOT = 0

CCSDS_OMM_VERS = 2.0
CREATION_DATE  = 
ORIGINATOR     = 

OBJECT_NAME    = HXMT (HUIYAN)
OBJECT_ID      = 2017-034A
CENTER_NAME    = EARTH
REF_FRAME      = TEME
TIME_SYSTEM    = UTC
MEAN_ELEMENT_THEORY = SGP/SGP4

EPOCH          = 2026-01-25T15:43:47.112960
MEAN_MOTION    = 15.16885919
ECCENTRICITY   = .00328128
INCLINATION    = 43.0135
RA_OF_ASC_NODE = 255.8223
ARG_OF_PERICENTER = 320.4373
MEAN_ANOMALY   = 39.4081

EPHEMERIS_TYPE = 0
CLASSIFICATION_TYPE = U
NORAD_CAT_ID   = 42758
ELEMENT_SET_NO = 999
REV_AT_EPOCH   = 47600
BSTAR          = .38296223E-3
MEAN_MOTION_DOT = .7552E-4
MEAN_MOTION_DDOT = 0

CCSDS_OMM_VERS = 2.0
CREATION_DATE  = 
ORIGINATOR     = 

OBJECT_NAME    = CZ-2C R/B
OBJECT_ID      = 2018-054D
CENTER_NAME    = EARTH
REF_FRAME      = TEME
TIME_SYSTEM    = UTC
MEAN_ELEMENT_THEORY = SGP/SGP4

EPOCH          = 2026-01-25T15:34:52.327200
MEAN_MOTION    = 15.87722560
ECCENTRICITY   = .00127954
INCLINATION    = 35.1306
RA_OF_ASC_NODE = 240.5473
ARG_OF_PERICENTER = 245.1147
MEAN_ANOMALY   = 114.8260

EPHEMERIS_TYPE = 0
CLASSIFICATION_TYPE = U
NORAD_CAT_ID   = 43521
ELEMENT_SET_NO = 999
REV_AT_EPOCH   = 42200
BSTAR          = .88093382E-3
MEAN_MOTION_DOT = .254834E-2
MEAN_MOTION_DDOT = 0

CCSDS_OMM_VERS = 2.0
CREATION_DATE  = 
ORIGINATOR     = 

OBJECT_NAME    = SAOCOM 1A
OBJECT_ID      = 2018-076A
CENTER_NAME    = EARTH
REF_FRAME      = TEME
TIME_SYSTEM    = UTC
MEAN_ELEMENT_THEORY = SGP/SGP4

EPOCH          = 2026-01-25T14:54:35.432352
MEAN_MOTION    = 14.82168404
ECCENTRICITY   = .00015302
INCLINATION    = 97.8861
RA_OF_ASC_NODE = 214.4064
ARG_OF_PERICENTER = 85.4087
MEAN_ANOMALY   = 274.7300

EPHEMERIS_TYPE = 0
CLASSIFICATION_TYPE = U
NORAD_CAT_ID   = 43641
ELEMENT_SET_NO = 999
REV_AT_EPOCH   = 39498
BSTAR          = .16401409E-3
MEAN_MOTION_DOT = .1254E-4
MEAN_MOTION_DDOT = 0

CCSDS_OMM_VERS = 2.0
CREATION_DATE  = 
ORIGINATOR     = 

OBJECT_NAME    = H-2A R/B
OBJECT_ID      = 2018-084L
CENTER_NAME    = EARTH
REF_FRAME      = TEME
TIME_SYSTEM    = UTC
MEAN_ELEMENT_THEORY = SGP/SGP4

EPOCH          = 2026-01-25T12:49:27.280128
MEAN_MOTION    = 15.39352001
ECCENTRICITY   = .0026018
INCLINATION    = 98.8767
RA_OF_ASC_NODE = 233.7611
ARG_OF_PERICENTER = 171.6996
MEAN_ANOMALY   = 188.4681

EPHEMERIS_TYPE = 0
CLASSIFICATION_TYPE = U
NORAD_CAT_ID   = 43682
ELEMENT_SET_NO = 999
REV_AT_EPOCH   = 39913
BSTAR          = .76130347E-3
MEAN_MOTION_DOT = .30062E-3
MEAN_MOTION_DDOT = 0

CCSDS_OMM_VERS = 2.0
CREATION_DATE  = 
ORIGINATOR     = 

OBJECT_NAME    = SAOCOM 1B
OBJECT_ID      = 2020-059A
CENTER_NAME    = EARTH
REF_FRAME      = TEME
TIME_SYSTEM    = UTC
MEAN_ELEMENT_THEORY = SGP/SGP4

EPOCH          = 2026-01-25T15:39:34.113888
MEAN_MOTION    = 14.82141244
ECCENTRICITY   = .0001335
INCLINATION    = 97.8858
RA_OF_ASC_NODE = 213.5359
ARG_OF_PERICENTER = 86.1482
MEAN_ANOMALY   = 273.9883

EPHEMERIS_TYPE = 0
CLASSIFICATION_TYPE = U
NORAD_CAT_ID   = 46265
ELEMENT_SET_NO = 999
REV_AT_EPOCH   = 29237
BSTAR          = .37355222E-4
MEAN_MOTION_DOT = .245E-5
MEAN_MOTION_DDOT = 0

CCSDS_OMM_VERS = 2.0
CREATION_DATE  = 
ORIGINATOR     = 

OBJECT_NAME    = CSS (TIANHE)
OBJECT_ID      = 2021-035A
CENTER_NAME    = EARTH
REF_FRAME      = TEME
TIME_SYSTEM    = UTC
MEAN_ELEMENT_THEORY = SGP/SGP4

EPOCH          = 2026-01-25T15:06:10.764000
MEAN_MOTION    = 15.61068734
ECCENTRICITY   = .00099147
INCLINATION    = 41.4667
RA_OF_ASC_NODE = 109.8872
ARG_OF_PERICENTER = 0.3997
MEAN_ANOMALY   = 359.6849

EPHEMERIS_TYPE = 0
CLASSIFICATION_TYPE = U
NORAD_CAT_ID   = 48274
ELEMENT_SET_NO = 999
REV_AT_EPOCH   = 27088
BSTAR          = .32006088E-3
MEAN_MOTION_DOT = .27552E-3
MEAN_MOTION_DDOT = 0

CCSDS_OMM_VERS = 2.0
CREATION_DATE  = 
ORIGINATOR     = 

OBJECT_NAME    = COSMOS 2550
OBJECT_ID      = 2021-056A
CENTER_NAME    = EARTH
REF_FRAME      = TEME
TIME_SYSTEM    = UTC
MEAN_ELEMENT_THEORY = SGP/SGP4

EPOCH          = 2026-01-23T09:26:54.726144
MEAN_MOTION    = 15.33842763
ECCENTRICITY   = .00084274
INCLINATION    = 67.1417
RA_OF_ASC_NODE = 177.9415
ARG_OF_PERICENTER = 270.0851
MEAN_ANOMALY   = 89.9337

EPHEMERIS_TYPE = 0
CLASSIFICATION_TYPE = U
NORAD_CAT_ID   = 48865
ELEMENT_SET_NO = 999
REV_AT_EPOCH   = 25651
BSTAR          = -.42471E-7
MEAN_MOTION_DOT = -.193E-5
MEAN_MOTION_DDOT = 0

CCSDS_OMM_VERS = 2.0
CREATION_DATE  = 
ORIGINATOR     = 

OBJECT_NAME    = CZ-2C R/B
OBJECT_ID      = 2022-058K
CENTER_NAME    = EARTH
REF_FRAME      = TEME
TIME_SYSTEM    = UTC
MEAN_ELEMENT_THEORY = SGP/SGP4

EPOCH          = 2026-01-25T03:15:30.051072
MEAN_MOTION    = 15.51183141
ECCENTRICITY   = .0042609
INCLINATION    = 50.1884
RA_OF_ASC_NODE = 181.8121
ARG_OF_PERICENTER = 17.0110
MEAN_ANOMALY   = 343.2277

EPHEMERIS_TYPE = 0
CLASSIFICATION_TYPE = U
NORAD_CAT_ID   = 52794
ELEMENT_SET_NO = 999
REV_AT_EPOCH   = 20336
BSTAR          = .65225E-3
MEAN_MOTION_DOT = .40086E-3
MEAN_MOTION_DDOT = 0

